{
    "creator": "Satellites plugin version 0.12.0",
    "version": "0.12.0",
    "hintColor": [
        0.4,
        0.4,
        0.4
    ],
    "satellites": {
        "25679": {
            "comms": [
            ],
            "groups": [
                "globalstar",
                "communications"
            ],
            "lastUpdated": "2020-01-08T19:52:07",
            "name": "GLOBALSTAR M042",
            "orbitVisible": false,
            "status": 2,
            "stdMag": 4,
            "tle1": "1 25679U 99019D   20008.10685840 -.00000050  00000-0  39574-3 0  9996",
            "tle2": "2 25679  52.0006 260.0786 0002729 150.8621  15.8936 12.22014357942381",
            "visible": true
        },
        "25682": {
            "comms": [
            ],
            "groups": [
            ],
            "lastUpdated": "2020-01-08T19:52:07",
            "name": "LANDSAT 7",
            "orbitVisible": false,
            "stdMag": 4,
            "tle1": "1 25682U 99020A   20008.11477128 -.00000007  00000-0  81970-5 0  9992",
            "tle2": "2 25682  98.1051  75.3668 0001249  69.8432 290.2895 14.57168219102745",
            "visible": true
        },
        "25723": {
            "comms": [
            ],
            "groups": [
                "visual"
            ],
            "lastUpdated": "2020-01-08T19:52:07",
            "name": "SL-8 R/B",
            "orbitVisible": false,
            "stdMag": 3.5,
            "tle1": "1 25723U 99022C   20007.56616010  .00012484  00000-0  10766-3 0  9997",
            "tle2": "2 25723  48.4101 170.7071 0008091 264.7650  95.2378 15.69543432152194",
            "visible": false
        },
        "25724": {
            "comms": [
            ],
            "groups": [
            ],
            "lastUpdated": "2020-01-08T19:52:07",
            "name": "Milstar 3",
            "orbitVisible": false,
            "stdMag": 2,
            "tle1": "1 25724U 99023A   20007.98943622 0.00000000  00000-0  00000-0 0    08",
            "tle2": "2 25724  28.2370 209.9225 2125578  19.0633 340.9362  9.37456333    05",
            "visible": true
        },
        "25732": {
            "comms": [
            ],
            "groups": [
            ],
            "lastUpdated": "2020-01-08T19:52:07",
            "name": "CZ-4B R/B",
            "orbitVisible": false,
            "stdMag": 3.5,
            "tle1": "1 25732U 99025C   20008.12879618 -.00000016  00000-0  14439-4 0  9999",
            "tle2": "2 25732  98.9614  35.6058 0036581 311.2492  89.5379 14.17671733 69107",
            "visible": true
        },
        "25740": {
            "comms": [
            ],
            "groups": [
            ],
            "lastUpdated": "2020-01-08T19:52:07",
            "name": "NIMIQ 1",
            "orbitVisible": false,
            "stdMag": 4.5,
            "tle1": "1 25740U 99027A   20007.87990073 -.00000181  00000-0  00000-0 0  9998",
            "tle2": "2 25740   0.7159  95.5403 0005463 194.3967  47.2013  1.00272609 75461",
            "visible": true
        },
        "25746": {
            "comms": [
            ],
            "groups": [
                "debris"
            ],
            "lastUpdated": "2020-01-08T19:52:07",
            "name": "USA 144 Deb",
            "orbitVisible": false,
            "stdMag": 2,
            "tle1": "1 25746U 99028C   19362.12429643 0.00000000  00000-0  00000-0 0    07",
            "tle2": "2 25746  63.4401  91.8799 0272074 302.9026  57.0974  9.70004428    07",
            "visible": true
        },
        "25757": {
            "comms": [
            ],
            "groups": [
            ],
            "lastUpdated": "2020-01-08T19:52:07",
            "name": "DLR-TUBSAT",
            "orbitVisible": false,
            "tle1": "1 25757U 99029B   20007.77374628 -.00000022  00000-0  60060-5 0  9990",
            "tle2": "2 25757  98.4208 294.9808 0013835 326.2291  33.8021 14.51413149 92038",
            "visible": true
        },
        "25770": {
            "comms": [
            ],
            "groups": [
                "globalstar",
                "communications"
            ],
            "lastUpdated": "2020-01-08T19:52:07",
            "name": "GLOBALSTAR M025",
            "orbitVisible": false,
            "status": 2,
            "stdMag": 4.5,
            "tle1": "1 25770U 99031A   20008.13715212 -.00000076  00000-0 -25349-3 0  9996",
            "tle2": "2 25770  51.9831  82.2819 0001449  62.3720 329.4250 11.22528571916227",
            "visible": true
        },
        "25771": {
            "comms": [
            ],
            "groups": [
                "globalstar",
                "communications"
            ],
            "lastUpdated": "2020-01-08T19:52:07",
            "name": "GLOBALSTAR M049",
            "orbitVisible": false,
            "status": 2,
            "stdMag": 4,
            "tle1": "1 25771U 99031B   20007.75855266 -.00000024  00000-0  14220-2 0  9995",
            "tle2": "2 25771  51.9898  18.0272 0002487 319.7766  40.2846 11.12083574896306",
            "visible": true
        },
        "25772": {
            "comms": [
            ],
            "groups": [
                "globalstar",
                "communications"
            ],
            "lastUpdated": "2020-01-08T19:52:07",
            "name": "GLOBALSTAR M047",
            "orbitVisible": false,
            "status": 2,
            "stdMag": 4,
            "tle1": "1 25772U 99031C   20007.57884275 -.00000047  00000-0  62898-3 0  9998",
            "tle2": "2 25772  51.9794 205.2953 0017684  89.7736 270.5096 11.31897507246038",
            "visible": true
        },
        "25773": {
            "comms": [
            ],
            "groups": [
                "globalstar",
                "communications"
            ],
            "lastUpdated": "2020-01-08T19:52:07",
            "name": "GLOBALSTAR M052",
            "orbitVisible": false,
            "status": 2,
            "stdMag": 4,
            "tle1": "1 25773U 99031D   20007.68158281 -.00000073  00000-0 -22787-3 0  9995",
            "tle2": "2 25773  51.9843 154.8386 0003821 113.1177 259.7929 11.15030822256803",
            "visible": true
        },
        "25847": {
            "comms": [
            ],
            "groups": [
                "molniya",
                "communications"
            ],
            "lastUpdated": "2020-01-08T19:52:07",
            "name": "MOLNIYA 3-50",
            "orbitVisible": false,
            "stdMag": 4,
            "tle1": "1 25847U 99036A   20007.35054528  .00000401  00000-0  18567-3 0  9999",
            "tle2": "2 25847  62.1811 116.4360 7295314 273.9003  13.4196  2.00584985150228",
            "visible": true
        },
        "25851": {
            "comms": [
            ],
            "groups": [
                "globalstar",
                "communications"
            ],
            "lastUpdated": "2020-01-08T19:52:07",
            "name": "GLOBALSTAR M035",
            "orbitVisible": false,
            "status": 2,
            "stdMag": 4,
            "tle1": "1 25851U 99037A   20007.55590331 -.00000099  00000-0 -13397-2 0  9994",
            "tle2": "2 25851  51.9919 167.4346 0013514   8.0206  27.8507 11.04512992876620",
            "visible": true
        },
        "25852": {
            "comms": [
            ],
            "groups": [
                "globalstar",
                "communications"
            ],
            "lastUpdated": "2020-01-08T19:52:07",
            "name": "GLOBALSTAR M032",
            "orbitVisible": false,
            "status": 2,
            "stdMag": 4,
            "tle1": "1 25852U 99037B   20007.68179333 -.00000093  00000-0 -84598-3 0  9990",
            "tle2": "2 25852  51.9945 129.4975 0003670 102.4745 257.6466 11.19039080912272",
            "visible": true
        },
        "25853": {
            "comms": [
            ],
            "groups": [
                "globalstar",
                "communications"
            ],
            "lastUpdated": "2020-01-08T19:52:07",
            "name": "GLOBALSTAR M051",
            "orbitVisible": false,
            "status": 2,
            "stdMag": 4,
            "tle1": "1 25853U 99037C   20007.69714503 -.00000075  00000-0 -84224-4 0  9993",
            "tle2": "2 25853  51.9772 155.2990 0001008  34.3349 325.7527 11.42171637905279",
            "visible": true
        },
        "25854": {
            "comms": [
            ],
            "groups": [
                "globalstar",
                "communications"
            ],
            "lastUpdated": "2020-01-08T19:52:07",
            "name": "GLOBALSTAR M030",
            "orbitVisible": false,
            "status": 2,
            "stdMag": 4,
            "tle1": "1 25854U 99037D   20007.59805287 -.00000044  00000-0  65047-3 0  9999",
            "tle2": "2 25854  51.9888  87.9682 0004035  87.2605 272.8673 11.55061646920466",
            "visible": true
        },
        "25860": {
            "comms": [
            ],
            "groups": [
                "visual"
            ],
            "hintColor": [
                0.5,
                0.5,
                0.5
            ],
            "lastUpdated": "2020-01-08T19:52:07",
            "name": "OKEAN-O",
            "orbitVisible": false,
            "stdMag": 3,
            "tle1": "1 25860U 99039A   20008.10316888  .00000036  00000-0  12785-4 0  9992",
            "tle2": "2 25860  98.2226  24.2086 0001629  72.0581 288.0806 14.76640496101792",
            "visible": true
        }
    },
    "shortName": "satellite orbital data"
}
